BEIDOU-2 IGSO-1 (C06)   
1 36828U 10036A   24056.73868671 -.00000139  00000+0  00000+0 0  9992
2 36828  54.2471 170.5871 0039335 195.2920 162.5633  1.00259579 49751
BEIDOU-2 G4 (C04)       
1 37210U 10057A   24056.87108674 -.00000111  00000+0  00000+0 0  9996
2 37210   1.5763  66.8874 0006037 204.9876 356.9805  1.00271462 48841
BEIDOU-2 IGSO-2 (C07)   
1 37256U 10068A   24057.04841104 -.00000163  00000+0  00000+0 0  9997
2 37256  49.0837 282.1816 0031144 211.3258 146.8545  1.00286812 48349
BEIDOU-2 IGSO-3 (C08)   
1 37384U 11013A   24056.62826032 -.00000152  00000+0  00000+0 0  9994
2 37384  61.1944  48.1950 0027062 184.5166 256.5422  1.00287693 47224
BEIDOU-2 IGSO-4 (C09)   
1 37763U 11038A   24055.78451542 -.00000109  00000+0  00000+0 0  9990
2 37763  54.5546 173.1817 0119742 227.2037 131.7265  1.00283240 46197
BEIDOU-2 IGSO-5 (C10)   
1 37948U 11073A   24057.52665973 -.00000116  00000+0  00000+0 0  9991
2 37948  49.2135 281.8562 0093420 220.0358 298.9406  1.00277132 44961
BEIDOU-2 G5 (C05)       
1 38091U 12008A   24057.13742561  .00000060  00000+0  00000+0 0  9993
2 38091   1.8025  69.7566 0011026 247.4354 306.5190  1.00269801 44039
BEIDOU-2 M3 (C11)       
1 38250U 12018A   24056.17213347 -.00000089  00000+0  00000+0 0  9991
2 38250  56.4101 333.1017 0022751 268.2241  91.5489  1.86231421 80245
BEIDOU-2 M4 (C12)       
1 38251U 12018B   24057.17673213 -.00000086  00000+0  00000+0 0  9992
2 38251  56.3178 332.3484 0013858 274.4883  85.3907  1.86232214 80615
BEIDOU-2 M6 (C14)       
1 38775U 12050B   24056.88632851  .00000008  00000+0  00000+0 0  9992
2 38775  55.8234  90.9167 0013840 327.2318  32.7611  1.86231202 77978
BEIDOU-2 G6 (C02)       
1 38953U 12059A   24056.89563215 -.00000172  00000+0  00000+0 0  9990
2 38953   2.2719  81.2420 0010899 296.0928 184.2254  1.00268544 41462
BEIDOU-3S IGSO-1S (C31) 
1 40549U 15019A   24056.64380289 -.00000151  00000+0  00000+0 0  9991
2 40549  50.7788 305.5179 0035126 192.8538 344.2017  1.00274408 32622
BEIDOU-3S M2S (C58)     
1 40748U 15037A   24054.15623017 -.00000095  00000+0  00000+0 0  9992
2 40748  55.5551 330.9417 0010004 266.9054  93.0096  1.86233266 58383
BEIDOU-3S M1S (C57)     
1 40749U 15037B   24057.11127041 -.00000085  00000+0  00000+0 0  9997
2 40749  55.5561 330.8282 0006668 340.2456  19.7674  1.86233130 58430
BEIDOU-3S IGSO-2S (C56) 
1 40938U 15053A   24057.49507009 -.00000091  00000+0  00000+0 0  9999
2 40938  50.5324 268.7040 0048048 187.6589 332.7895  1.00288723 30900
BEIDOU-2 IGSO-6 (C13)   
1 41434U 16021A   24057.43103994 -.00000123  00000+0  00000+0 0  9992
2 41434  59.0179  46.4772 0050878 225.2977 132.8722  1.00292288 29032
BEIDOU-2 G7 (C03)       
1 41586U 16037A   24056.88521583 -.00000352  00000+0  00000+0 0  9997
2 41586   1.6363  68.0120 0009971 318.6528 197.7633  1.00268867 28342
BEIDOU-3 M1 (C19)       
1 43001U 17069A   24057.18943847  .00000008  00000+0  00000+0 0  9999
2 43001  55.9745  90.9885 0012031 295.1932  64.7600  1.86231553 42926
BEIDOU-3 M2 (C20)       
1 43002U 17069B   24056.05254431  .00000009  00000+0  00000+0 0  9990
2 43002  55.9729  91.0623 0009355 313.1928  46.8095  1.86231189 42892
BEIDOU-3 M7 (C27)       
1 43107U 18003A   24055.26547968 -.00000092  00000+0  00000+0 0  9990
2 43107  55.0118 331.5448 0004396  50.6447 309.4262  1.86232490 41638
BEIDOU-3 M8 (C28)       
1 43108U 18003B   24055.20498618 -.00000093  00000+0  00000+0 0  9993
2 43108  55.0048 331.5331 0003678 281.4549  78.5357  1.86231020 41649
BEIDOU-3 M4 (C22)       
1 43207U 18018A   24056.18358732  .00000009  00000+0  00000+0 0  9995
2 43207  55.9325  91.1149 0006143 331.7254  28.3216  1.86231496 41042
BEIDOU-3 M3 (C21)       
1 43208U 18018B   24056.25016557  .00000009  00000+0  00000+0 0  9990
2 43208  55.9320  91.1171 0009471 303.5576  56.4321  1.86231623 41045
BEIDOU-3 M9 (C29)       
1 43245U 18029A   24055.39825063 -.00000089  00000+0  00000+0 0  9996
2 43245  54.8991 329.2587 0001427 331.4775  28.5508  1.86232818 40186
BEIDOU-3 M10 (C30)      
1 43246U 18029B   24055.32806533 -.00000089  00000+0  00000+0 0  9991
2 43246  54.8964 329.2893 0005062   1.8822 358.1554  1.86232859 40163
BEIDOU-2 IGSO-7 (C16)   
1 43539U 18057A   24056.72757806 -.00000146  00000+0  00000+0 0  9994
2 43539  55.1369 170.3511 0070912 231.2488 127.4705  1.00287575 20687
BEIDOU-3 M5 (C23)       
1 43581U 18062A   24057.16019644  .00000026  00000+0  00000+0 0  9993
2 43581  54.1495 210.9491 0001417 321.7403  38.1965  1.86228804 37955
BEIDOU-3 M6 (C24)       
1 43582U 18062B   24056.48958657  .00000018  00000+0  00000+0 0  9995
2 43582  54.1495 210.9614 0006417  39.2757 320.7167  1.86229654 37948
BEIDOU-3 M12 (C26)      
1 43602U 18067A   24056.96115446  .00000023  00000+0  00000+0 0  9993
2 43602  54.2386 209.6165 0007840  30.9934 328.9987  1.86231716 37439
BEIDOU-3 M11 (C25)      
1 43603U 18067B   24057.09502541  .00000025  00000+0  00000+0 0  9997
2 43603  54.2357 209.5775 0004524  27.3666 332.6034  1.86231605 37467
BEIDOU-3 M13 (C32)      
1 43622U 18072A   24055.98135415  .00000009  00000+0  00000+0 0  9994
2 43622  55.9028  90.6563 0008586 290.8246  69.1635  1.86231342 36958
BEIDOU-3 M14 (C33)      
1 43623U 18072B   24057.45766139  .00000007  00000+0  00000+0 0  9990
2 43623  55.9058  90.6000 0005994 308.9934  51.0301  1.86231342 36975
BEIDOU-3 M16 (C35)      
1 43647U 18078A   24056.01004386 -.00000087  00000+0  00000+0 0  9991
2 43647  54.7950 329.3457 0008271  11.2475 348.8087  1.86232448 36451
BEIDOU-3 M15 (C34)      
1 43648U 18078B   24057.21309052 -.00000084  00000+0  00000+0 0  9990
2 43648  54.7903 329.3075 0005216  16.9428 343.1153  1.86232263 36505
BEIDOU-3 G1 (C59)       
1 43683U 18085A   24056.86717072 -.00000277  00000+0  00000+0 0  9996
2 43683   1.9183 114.4399 0002511 318.9181 174.0853  1.00270510 19610
BEIDOU-3 M17 (C36)      
1 43706U 18093A   24056.28781954  .00000016  00000+0  00000+0 0  9997
2 43706  54.2326 210.9089 0006528 289.5427  70.3325  1.86228431 35824
BEIDOU-3 M18 (C37)      
1 43707U 18093B   24056.69099761  .00000020  00000+0  00000+0 0  9996
2 43707  54.2333 210.8869 0005889 330.7781  29.1349  1.86229913 35845
BEIDOU-3 IGSO-1 (C38)   
1 44204U 19023A   24057.36429359 -.00000188  00000+0  00000+0 0  9994
2 44204  57.4807  46.3926 0021013 216.5688 143.2798  1.00283191 17917
BEIDOU-2 G8 (C01)       
1 44231U 19027A   24056.93967384 -.00000247  00000+0  00000+0 0  9991
2 44231   1.6697  73.0597 0003263 185.4225  19.5463  1.00268240 17624
BEIDOU-3 IGSO-2 (C39)   
1 44337U 19035A   24054.98452080 -.00000166  00000+0  00000+0 0  9992
2 44337  55.1692 166.2708 0032008 203.6170 257.6386  1.00276914 17200
BEIDOU-3 M24 (C46)      
1 44542U 19061A   24056.76134232  .00000022  00000+0  00000+0 0  9993
2 44542  54.4598 211.1571 0008045  10.6109 349.3523  1.86231264 30104
BEIDOU-3 M23 (C45)      
1 44543U 19061B   24057.38857007  .00000029  00000+0  00000+0 0  9992
2 44543  54.4586 211.1050 0004832   7.7758 324.8228  1.86231765 30118
BEIDOU-3 IGSO-3 (C40)   
1 44709U 19073A   24056.04520882 -.00000143  00000+0  00000+0 0  9997
2 44709  56.2390 289.9200 0035187 180.4110 179.6821  1.00284096 16001
BEIDOU-3 M22 (C44)      
1 44793U 19078A   24057.14414187 -.00000084  00000+0  00000+0 0  9991
2 44793  54.6424 329.2523 0007184  16.7705 343.2938  1.86232155 28977
BEIDOU-3 M21 (C43)      
1 44794U 19078B   24057.27423485 -.00000084  00000+0  00000+0 0  9997
2 44794  54.6160 329.2263 0005155   9.5913 350.4594  1.86232675 28978
BEIDOU-3 M19 (C41)      
1 44864U 19090A   24057.52733574  .00000007  00000+0  00000+0 0  9994
2 44864  55.8382  90.7821 0019668 278.5692  84.4322  1.86231838 28558
BEIDOU-3 M20 (C42)      
1 44865U 19090B   24057.34841410  .00000007  00000+0  00000+0 0  9994
2 44865  55.8398  90.8212 0017372 290.2668  42.5369  1.86231785 28530
BEIDOU-3 G2 (C60)       
1 45344U 20017A   24056.89910681 -.00000139  00000+0  00000+0 0  9991
2 45344   2.1882  24.8748 0002427 283.3008 250.7548  1.00271264 14813
BEIDOU-3 G3 (C61)       
1 45807U 20040A   24057.49940227 -.00000351  00000+0  00000+0 0  9993
2 45807   0.6231  23.8364 0008564 297.4845 124.8263  1.00276071 13640
BEIDOU-3 G4             
1 56564U 23066A   24057.45211019 -.00000110  00000+0  00000+0 0  9995
2 56564   2.4039 288.2054 0002650 201.4880 348.8547  1.00271046  2968
BEIDOU-3 M25            
1 58654U 23207A   24056.28312807  .00000006  00000+0  00000+0 0  9994
2 58654  55.0186  90.9181 0004782 275.3288  84.6961  1.86232213  1147
BEIDOU-3 M26            
1 58655U 23207B   24056.08183444  .00000006  00000+0  00000+0 0  9996
2 58655  55.0204  90.9102 0005672 262.3329  97.6823  1.86231750  1127
